1 40903U 15049E   16006.22637663  .00005757  00000-0  17294-3 0  9993 
2 40903  97.4523  19.5354 0016866   4.3535 126.1227 15.34692589 16541 